[
    {
        "Altitude(m)": 717401.3149448253,
        "Argument of Periapsis(deg)": 0.0034170363559881197,
        "Eccentricity": 0.0,
        "Inclination(deg)": 45.0,
        "Latitude(deg)": -43.99078761534469,
        "Longitude(deg)": 36.00831451830802,
        "Mean Anomaly(deg)": -78.35823500575573,
        "RAAN(deg)": 209.9967744175626,
        "Satellite Name": "Constellation 1 941",
        "Satellite Number": 941,
        "Semi-Major Axis(m)": 7083131.272910544,
        "Time(s)": 57
    },
    {
        "Altitude(m)": 717396.3478515551,
        "Argument of Periapsis(deg)": 0.003476984362233526,
        "Eccentricity": 0.0,
        "Inclination(deg)": 45.0,
        "Latitude(deg)": -43.97877755576138,
        "Longitude(deg)": 36.08648672826782,
        "Mean Anomaly(deg)": -78.29753386550588,
        "RAAN(deg)": 209.99671782839698,
        "Satellite Name": "Constellation 1 941",
        "Satellite Number": 941,
        "Semi-Major Axis(m)": 7083131.272910544,
        "Time(s)": 58
    },
    {
        "Altitude(m)": 717391.3561405113,
        "Argument of Periapsis(deg)": 0.003536932368478932,
        "Eccentricity": 0.0,
        "Inclination(deg)": 45.0,
        "Latitude(deg)": -43.96670826097401,
        "Longitude(deg)": 36.16462560005888,
        "Mean Anomaly(deg)": -78.23683272525592,
        "RAAN(deg)": 209.99666123923143,
        "Satellite Name": "Constellation 1 941",
        "Satellite Number": 941,
        "Semi-Major Axis(m)": 7083131.272910544,
        "Time(s)": 59
    },
    {
        "Altitude(m)": 717386.3398300591,
        "Argument of Periapsis(deg)": 0.003596880374724337,
        "Eccentricity": 0.0,
        "Inclination(deg)": 45.0,
        "Latitude(deg)": -43.95457977928063,
        "Longitude(deg)": 36.24273133433903,
        "Mean Anomaly(deg)": -78.17613158500606,
        "RAAN(deg)": 209.99660465006585,
        "Satellite Name": "Constellation 1 941",
        "Satellite Number": 941,
        "Semi-Major Axis(m)": 7083131.272910544,
        "Time(s)": 60
    },
    {
        "Altitude(m)": 717381.2989386715,
        "Argument of Periapsis(deg)": 0.0036568283809697427,
        "Eccentricity": 0.0,
        "Inclination(deg)": 45.0,
        "Latitude(deg)": -43.94239215916713,
        "Longitude(deg)": 36.32080362798608,
        "Mean Anomaly(deg)": -78.1154304447562,
        "RAAN(deg)": 209.9965480609003,
        "Satellite Name": "Constellation 1 941",
        "Satellite Number": 941,
        "Semi-Major Axis(m)": 7083131.272910544,
        "Time(s)": 61
    },
    {
        "Altitude(m)": 717376.2334849015,
        "Argument of Periapsis(deg)": 0.003716776387215149,
        "Eccentricity": 0.0,
        "Inclination(deg)": 45.0,
        "Latitude(deg)": -43.93014544930531,
        "Longitude(deg)": 36.39884234648667,
        "Mean Anomaly(deg)": -78.05472930450625,
        "RAAN(deg)": 209.99649147173469,
        "Satellite Name": "Constellation 1 941",
        "Satellite Number": 941,
        "Semi-Major Axis(m)": 7083131.272910544,
        "Time(s)": 62
    },
    {
        "Altitude(m)": 717371.1434873948,
        "Argument of Periapsis(deg)": 0.003776724393460554,
        "Eccentricity": 0.0,
        "Inclination(deg)": 45.0,
        "Latitude(deg)": -43.917839698552335,
        "Longitude(deg)": 36.47684735584017,
        "Mean Anomaly(deg)": -77.99402816425626,
        "RAAN(deg)": 209.99643488256913,
        "Satellite Name": "Constellation 1 941",
        "Satellite Number": 941,
        "Semi-Major Axis(m)": 7083131.272910544,
        "Time(s)": 63
    },
    {
        "Altitude(m)": 717366.0289648827,
        "Argument of Periapsis(deg)": 0.003836672399705959,
        "Eccentricity": 0.0,
        "Inclination(deg)": 45.0,
        "Latitude(deg)": -43.90547495594988,
        "Longitude(deg)": 36.55481852256005,
        "Mean Anomaly(deg)": -77.9333270240065,
        "RAAN(deg)": 209.99637829340355,
        "Satellite Name": "Constellation 1 941",
        "Satellite Number": 941,
        "Semi-Major Axis(m)": 7083131.272910544,
        "Time(s)": 64
    },
    {
        "Altitude(m)": 717360.8899361958,
        "Argument of Periapsis(deg)": 0.003896620405951365,
        "Eccentricity": 0.0,
        "Inclination(deg)": 45.0,
        "Latitude(deg)": -43.89305127072309,
        "Longitude(deg)": 36.632755713675834,
        "Mean Anomaly(deg)": -77.87262588375657,
        "RAAN(deg)": 209.996321704238,
        "Satellite Name": "Constellation 1 941",
        "Satellite Number": 941,
        "Semi-Major Axis(m)": 7083131.272910544,
        "Time(s)": 65
    },
    {
        "Altitude(m)": 717355.7264202436,
        "Argument of Periapsis(deg)": 0.003956568412196771,
        "Eccentricity": 0.0,
        "Inclination(deg)": 45.0,
        "Latitude(deg)": -43.88056869227996,
        "Longitude(deg)": 36.710658796732965,
        "Mean Anomaly(deg)": -77.81192474350668,
        "RAAN(deg)": 209.99626511507245,
        "Satellite Name": "Constellation 1 941",
        "Satellite Number": 941,
        "Semi-Major Axis(m)": 7083131.272910544,
        "Time(s)": 66
    },
    {
        "Altitude(m)": 717350.53843603,
        "Argument of Periapsis(deg)": 0.004016516418442176,
        "Eccentricity": 0.0,
        "Inclination(deg)": 45.0,
        "Latitude(deg)": -43.86802727021066,
        "Longitude(deg)": 36.78852747169816,
        "Mean Anomaly(deg)": -77.75122360325675,
        "RAAN(deg)": 209.99620852590684,
        "Satellite Name": "Constellation 1 941",
        "Satellite Number": 941,
        "Semi-Major Axis(m)": 7083131.272910544,
        "Time(s)": 67
    },
    {
        "Altitude(m)": 717345.3260026518,
        "Argument of Periapsis(deg)": 0.004076464424687581,
        "Eccentricity": 0.0,
        "Inclination(deg)": 45.0,
        "Latitude(deg)": -43.855427054285464,
        "Longitude(deg)": 36.86636194334743,
        "Mean Anomaly(deg)": -77.69052246300686,
        "RAAN(deg)": 209.99615193674128,
        "Satellite Name": "Constellation 1 941",
        "Satellite Number": 941,
        "Semi-Major Axis(m)": 7083131.272910544,
        "Time(s)": 68
    },
    {
        "Altitude(m)": 717340.0891392924,
        "Argument of Periapsis(deg)": 0.004136412430932987,
        "Eccentricity": 0.0,
        "Inclination(deg)": 45.0,
        "Latitude(deg)": -43.842768094455664,
        "Longitude(deg)": 36.94416191268645,
        "Mean Anomaly(deg)": -77.62982132275692,
        "RAAN(deg)": 209.9960953475757,
        "Satellite Name": "Constellation 1 941",
        "Satellite Number": 941,
        "Semi-Major Axis(m)": 7083131.272910544,
        "Time(s)": 69
    },
    {
        "Altitude(m)": 717334.8278652239,
        "Argument of Periapsis(deg)": 0.004196360437178394,
        "Eccentricity": 0.0,
        "Inclination(deg)": 45.0,
        "Latitude(deg)": -43.8300504408516,
        "Longitude(deg)": 37.02192724933862,
        "Mean Anomaly(deg)": -77.56912018250706,
        "RAAN(deg)": 209.99603875841015,
        "Satellite Name": "Constellation 1 941",
        "Satellite Number": 941,
        "Semi-Major Axis(m)": 7083131.272910544,
        "Time(s)": 70
    },
    {
        "Altitude(m)": 717329.542199807,
        "Argument of Periapsis(deg)": 0.004256308443423799,
        "Eccentricity": 0.0,
        "Inclination(deg)": 45.0,
        "Latitude(deg)": -43.81727414378189,
        "Longitude(deg)": 37.09965782344986,
        "Mean Anomaly(deg)": -77.5084190422572,
        "RAAN(deg)": 209.99598216924454,
        "Satellite Name": "Constellation 1 941",
        "Satellite Number": 941,
        "Semi-Major Axis(m)": 7083131.272910544,
        "Time(s)": 71
    },
    {
        "Altitude(m)": 717324.2321624932,
        "Argument of Periapsis(deg)": 0.004316256449669204,
        "Eccentricity": 0.0,
        "Inclination(deg)": 45.0,
        "Latitude(deg)": -43.80443925373274,
        "Longitude(deg)": 37.177353505689524,
        "Mean Anomaly(deg)": -77.44771790200724,
        "RAAN(deg)": 209.995925580079,
        "Satellite Name": "Constellation 1 941",
        "Satellite Number": 941,
        "Semi-Major Axis(m)": 7083131.272910544,
        "Time(s)": 72
    },
    {
        "Altitude(m)": 717318.8977728283,
        "Argument of Periapsis(deg)": 0.00437620445591461,
        "Eccentricity": 0.0,
        "Inclination(deg)": 45.0,
        "Latitude(deg)": -43.79154582136708,
        "Longitude(deg)": 37.2550141672508,
        "Mean Anomaly(deg)": -77.38701676175738,
        "RAAN(deg)": 209.99586899091344,
        "Satellite Name": "Constellation 1 941",
        "Satellite Number": 941,
        "Semi-Major Axis(m)": 7083131.272910544,
        "Time(s)": 73
    },
    {
        "Altitude(m)": 717313.5390504356,
        "Argument of Periapsis(deg)": 0.004436152462160016,
        "Eccentricity": 0.0,
        "Inclination(deg)": 45.0,
        "Latitude(deg)": -43.778593897523756,
        "Longitude(deg)": 37.33263951175603,
        "Mean Anomaly(deg)": -77.32631562150752,
        "RAAN(deg)": 209.99581240174786,
        "Satellite Name": "Constellation 1 941",
        "Satellite Number": 941,
        "Semi-Major Axis(m)": 7083131.272910544,
        "Time(s)": 74
    },
    {
        "Altitude(m)": 717308.1560150357,
        "Argument of Periapsis(deg)": 0.0044961004684054215,
        "Eccentricity": 0.0,
        "Inclination(deg)": 45.0,
        "Latitude(deg)": -43.76558353321582,
        "Longitude(deg)": 37.4102297476445,
        "Mean Anomaly(deg)": -77.26561448125756,
        "RAAN(deg)": 209.9957558125823,
        "Satellite Name": "Constellation 1 941",
        "Satellite Number": 941,
        "Semi-Major Axis(m)": 7083131.272910544,
        "Time(s)": 75
    }
]